{
  "type": "FeatureCollection",
  "features": [
    {
      "type": "Feature",
      "properties": {
        "name": "Bangladesh"
      },
      "geometry": {
        "type": "Polygon",
        "coordinates": [
          [
            [88.01, 24.00],
            [88.50, 25.80],
            [88.80, 26.30],
            [89.80, 26.30],
            [91.00, 25.20],
            [92.50, 25.20],
            [92.30, 24.00],
            [92.68, 22.00],
            [92.30, 21.00],
            [92.00, 20.59],
            [91.50, 22.00],
            [90.50, 22.00],
            [89.50, 21.80],
            [89.00, 21.50],
            [88.01, 24.00]
          ]
        ]
      }
    }
  ]
}
